{
    "week": 295,
    "satellites": [
        {
            "Name": "BEIDOU-3 M13 (C32)",
            "Line1": "1 43622U 18072A   24339.49229648 -.00000004  00000+0  00000+0 0  9993",
            "Line2": "2 43622  56.1347  81.2066 0005449 290.1838  69.7595  1.86230950 42237",
            "SatelliteNumber": "43622",
            "Classification": "U",
            "LaunchYear": "18",
            "LaunchNumber": "072",
            "PieceOfLaunch": "A",
            "EpochYear": "24",
            "EpochDay": 339.49229648,
            "FirstDerivativeMeanMotion": -4e-08,
            "SecondDerivativeMeanMotion": "00000+0",
            "BSTAR": "00000+0",
            "SetNumber": "999",
            "Inclination": 56.1347,
            "RAAN": 81.2066,
            "Eccentricity": 0.0005449,
            "ArgumentOfPerigee": 290.1838,
            "MeanAnomaly": 69.7595,
            "MeanMotion": 1.8623095,
            "RevolutionNumber": "4223"
        },
        {
            "Name": "BEIDOU-3 M14 (C33)",
            "Line1": "1 43623U 18072B   24338.82080539 -.00000008  00000+0  00000+0 0  9998",
            "Line2": "2 43623  56.1361  81.2224 0002785 325.6345  34.3461  1.86230967 42213",
            "SatelliteNumber": "43623",
            "Classification": "U",
            "LaunchYear": "18",
            "LaunchNumber": "072",
            "PieceOfLaunch": "B",
            "EpochYear": "24",
            "EpochDay": 338.82080539,
            "FirstDerivativeMeanMotion": -8e-08,
            "SecondDerivativeMeanMotion": "00000+0",
            "BSTAR": "00000+0",
            "SetNumber": "999",
            "Inclination": 56.1361,
            "RAAN": 81.2224,
            "Eccentricity": 0.0002785,
            "ArgumentOfPerigee": 325.6345,
            "MeanAnomaly": 34.3461,
            "MeanMotion": 1.86230967,
            "RevolutionNumber": "4221"
        },
        {
            "Name": "BEIDOU-3 M16 (C35)",
            "Line1": "1 43647U 18078A   24338.44545516 -.00000052  00000+0  00000+0 0  9998",
            "Line2": "2 43647  54.5846 319.5645 0006926   7.8084 352.2000  1.86232234 41717",
            "SatelliteNumber": "43647",
            "Classification": "U",
            "LaunchYear": "18",
            "LaunchNumber": "078",
            "PieceOfLaunch": "A",
            "EpochYear": "24",
            "EpochDay": 338.44545516,
            "FirstDerivativeMeanMotion": -5.2e-07,
            "SecondDerivativeMeanMotion": "00000+0",
            "BSTAR": "00000+0",
            "SetNumber": "999",
            "Inclination": 54.5846,
            "RAAN": 319.5645,
            "Eccentricity": 0.0006926,
            "ArgumentOfPerigee": 7.8084,
            "MeanAnomaly": 352.2,
            "MeanMotion": 1.86232234,
            "RevolutionNumber": "4171"
        },
        {
            "Name": "BEIDOU-3 M15 (C34)",
            "Line1": "1 43648U 18078B   24339.11154626 -.00000050  00000+0  00000+0 0  9990",
            "Line2": "2 43648  54.5798 319.5436 0003675   4.2735 355.7280  1.86232128 41747",
            "SatelliteNumber": "43648",
            "Classification": "U",
            "LaunchYear": "18",
            "LaunchNumber": "078",
            "PieceOfLaunch": "B",
            "EpochYear": "24",
            "EpochDay": 339.11154626,
            "FirstDerivativeMeanMotion": -5e-07,
            "SecondDerivativeMeanMotion": "00000+0",
            "BSTAR": "00000+0",
            "SetNumber": "999",
            "Inclination": 54.5798,
            "RAAN": 319.5436,
            "Eccentricity": 0.0003675,
            "ArgumentOfPerigee": 4.2735,
            "MeanAnomaly": 355.728,
            "MeanMotion": 1.86232128,
            "RevolutionNumber": "4174"
        },
        {
            "Name": "BEIDOU-3 G1 (C59)",
            "Line1": "1 43683U 18085A   24339.54615106 -.00000258  00000+0  00000+0 0  9999",
            "Line2": "2 43683   2.6129 103.5971 0001247  47.2188 259.5802  1.00266002 22446",
            "SatelliteNumber": "43683",
            "Classification": "U",
            "LaunchYear": "18",
            "LaunchNumber": "085",
            "PieceOfLaunch": "A",
            "EpochYear": "24",
            "EpochDay": 339.54615106,
            "FirstDerivativeMeanMotion": -2.58e-06,
            "SecondDerivativeMeanMotion": "00000+0",
            "BSTAR": "00000+0",
            "SetNumber": "999",
            "Inclination": 2.6129,
            "RAAN": 103.5971,
            "Eccentricity": 0.0001247,
            "ArgumentOfPerigee": 47.2188,
            "MeanAnomaly": 259.5802,
            "MeanMotion": 1.00266002,
            "RevolutionNumber": "2244"
        },
        {
            "Name": "BEIDOU-3 M17 (C36)",
            "Line1": "1 43706U 18093A   24338.19052018  .00000087  00000+0  00000+0 0  9990",
            "Line2": "2 43706  54.1964 201.3332 0006648 299.5489  60.4881  1.86228424 41093",
            "SatelliteNumber": "43706",
            "Classification": "U",
            "LaunchYear": "18",
            "LaunchNumber": "093",
            "PieceOfLaunch": "A",
            "EpochYear": "24",
            "EpochDay": 338.19052018,
            "FirstDerivativeMeanMotion": 8.7e-07,
            "SecondDerivativeMeanMotion": "00000+0",
            "BSTAR": "00000+0",
            "SetNumber": "999",
            "Inclination": 54.1964,
            "RAAN": 201.3332,
            "Eccentricity": 0.0006648,
            "ArgumentOfPerigee": 299.5489,
            "MeanAnomaly": 60.4881,
            "MeanMotion": 1.86228424,
            "RevolutionNumber": "4109"
        },
        {
            "Name": "BEIDOU-3 M18 (C37)",
            "Line1": "1 43707U 18093B   24339.12837327  .00000082  00000+0  00000+0 0  9994",
            "Line2": "2 43707  54.1971 201.2930 0006398 340.2492  19.8247  1.86229921 41104",
            "SatelliteNumber": "43707",
            "Classification": "U",
            "LaunchYear": "18",
            "LaunchNumber": "093",
            "PieceOfLaunch": "B",
            "EpochYear": "24",
            "EpochDay": 339.12837327,
            "FirstDerivativeMeanMotion": 8.2e-07,
            "SecondDerivativeMeanMotion": "00000+0",
            "BSTAR": "00000+0",
            "SetNumber": "999",
            "Inclination": 54.1971,
            "RAAN": 201.293,
            "Eccentricity": 0.0006398,
            "ArgumentOfPerigee": 340.2492,
            "MeanAnomaly": 19.8247,
            "MeanMotion": 1.86229921,
            "RevolutionNumber": "4110"
        },
        {
            "Name": "BEIDOU-3 IGSO-1 (C38)",
            "Line1": "1 44204U 19023A   24339.67918105 -.00000210  00000+0  00000+0 0  9999",
            "Line2": "2 44204  57.8922  43.4473 0025170 212.5086 178.2006  1.00250594 20757",
            "SatelliteNumber": "44204",
            "Classification": "U",
            "LaunchYear": "19",
            "LaunchNumber": "023",
            "PieceOfLaunch": "A",
            "EpochYear": "24",
            "EpochDay": 339.67918105,
            "FirstDerivativeMeanMotion": -2.1e-06,
            "SecondDerivativeMeanMotion": "00000+0",
            "BSTAR": "00000+0",
            "SetNumber": "999",
            "Inclination": 57.8922,
            "RAAN": 43.4473,
            "Eccentricity": 0.002517,
            "ArgumentOfPerigee": 212.5086,
            "MeanAnomaly": 178.2006,
            "MeanMotion": 1.00250594,
            "RevolutionNumber": "2075"
        },
        {
            "Name": "BEIDOU-2 G8 (C01)",
            "Line1": "1 44231U 19027A   24339.76152800 -.00000226  00000+0  00000+0 0  9992",
            "Line2": "2 44231   1.9005  74.7473 0004455 196.7530 221.2570  1.00274566 20464",
            "SatelliteNumber": "44231",
            "Classification": "U",
            "LaunchYear": "19",
            "LaunchNumber": "027",
            "PieceOfLaunch": "A",
            "EpochYear": "24",
            "EpochDay": 339.761528,
            "FirstDerivativeMeanMotion": -2.26e-06,
            "SecondDerivativeMeanMotion": "00000+0",
            "BSTAR": "00000+0",
            "SetNumber": "999",
            "Inclination": 1.9005,
            "RAAN": 74.7473,
            "Eccentricity": 0.0004455,
            "ArgumentOfPerigee": 196.753,
            "MeanAnomaly": 221.257,
            "MeanMotion": 1.00274566,
            "RevolutionNumber": "2046"
        },
        {
            "Name": "BEIDOU-3 IGSO-2 (C39)",
            "Line1": "1 44337U 19035A   24322.83050358 -.00000064  00000+0  00000+0 0  9993",
            "Line2": "2 44337  55.1861 163.9216 0034767 201.0257 107.1426  1.00249229 19887",
            "SatelliteNumber": "44337",
            "Classification": "U",
            "LaunchYear": "19",
            "LaunchNumber": "035",
            "PieceOfLaunch": "A",
            "EpochYear": "24",
            "EpochDay": 322.83050358,
            "FirstDerivativeMeanMotion": -6.4e-07,
            "SecondDerivativeMeanMotion": "00000+0",
            "BSTAR": "00000+0",
            "SetNumber": "999",
            "Inclination": 55.1861,
            "RAAN": 163.9216,
            "Eccentricity": 0.0034767,
            "ArgumentOfPerigee": 201.0257,
            "MeanAnomaly": 107.1426,
            "MeanMotion": 1.00249229,
            "RevolutionNumber": "1988"
        }
    ]
}